167P/CINEOS,e,19.1023,295.7399,344.7972,16.25206,0.0150432,0.26972000,119.9393,03/02.0/2023,2000,g  9.5,2.0
# From MPC102101
168P/Hergenrother,e,21.6223,355.4499,15.0339,3.582368,0.1453613,0.62121070,189.5177,03/02.0/2023,2000,g 15.5,4.0
# From MPEC 2023-CD7
169P/NEAT,e,11.2984,176.1011,218.0546,2.602607,0.2347423,0.76834664,55.2375,03/02.0/2023,2000,g 16.0,2.0
# From MPEC 2023-A50
170P/Christensen,e,10.1193,142.9151,225.3996,4.208727,0.1141505,0.30529768,354.4463,03/02.0/2023,2000,g 12.0,4.0
# From MPC102102
171P/Spahr,e,21.9469,101.6881,347.0461,3.553720,0.1471226,0.50218738,221.9461,03/02.0/2023,2000,g 13.5,4.0
# From MPEC 2023-D41
172P/Yeung,e,11.2253,30.8750,209.2363,4.217384,0.1137993,0.20453829,248.6624,03/02.0/2023,2000,g 13.0,4.0
# From MPEC 2022-X67
173P/Mueller,e,16.4892,100.3803,29.1481,5.709775,0.0722396,0.26152255,31.8300,03/02.0/2023,2000,g  7.5,4.0
# From MPC 92985
174P/Echeclus,e,4.3439,173.1879,163.4130,10.74458,0.0279847,0.45690871,80.2156,03/02.0/2023,2000,g  9.4,2.0
# From MPC114608
175P/Hergenrother,e,4.9219,111.4830,74.4169,3.642119,0.1417989,0.39018895,179.5905,03/02.0/2023,2000,g 14.0,4.0
# From MPC 89015
176P/LINEAR,e,0.2314,345.8638,34.3509,3.197165,0.1724077,0.19288103,17.4520,03/02.0/2023,2000,g 15.1,2.0
# From MPEC 2020-L06
177P/Barnard,e,31.1055,271.8983,60.6232,24.49323,0.0081308,0.95513915,48.9533,03/02.0/2023,2000,g 15.0,4.0
# From MPEC 2021-F20
178P/Hug-Bell,e,11.0875,102.8317,297.8533,3.632662,0.1423530,0.48248832,136.3532,03/02.0/2023,2000,g 14.6,4.0
# From MPEC 2023-D41
179P/Jedicke,e,19.8975,115.5144,296.9925,5.932686,0.0682067,0.30586084,18.7670,03/02.0/2023,2000,g  2.5,8.0
# From MPEC 2023-D72
180P/NEAT,e,16.8602,84.5682,94.6731,3.867125,0.1296050,0.35331709,342.8633,03/02.0/2023,2000,g 11.0,4.0
# From MPC 89012
181P/Shoemaker-Levy,e,17.4862,35.3955,336.2713,3.875504,0.1291849,0.70057452,53.9008,03/02.0/2023,2000,g 11.5,4.0
# From MPEC 2014-J10
182P/LONEOS,e,16.2287,72.4571,54.2221,2.950266,0.1944967,0.66325858,57.1339,03/02.0/2023,2000,g 18.0,4.0
# From MPEC 2023-A50
183P/Korlevic-Juric,e,18.9783,3.9880,167.5127,4.652436,0.0982163,0.10979653,193.7795,03/02.0/2023,2000,g 12.5,2.0
# From MPEC 2020-W26
184P/Lovas,e,4.5739,173.2405,186.5535,3.797468,0.1331873,0.55092433,114.0938,03/02.0/2023,2000,g 13.5,4.0
# From MPC109593
185P/Petriew,e,14.0146,214.1149,181.8913,3.097859,0.1807639,0.69969821,335.9751,03/02.0/2023,2000,g 15.0,4.0
# From MPEC 2022-X67
186P/Garradd,e,28.6609,326.3404,269.6150,4.855437,0.0921216,0.12401643,139.9322,03/02.0/2023,2000,g  7.5,4.0
# From MPEC 2020-SI8
187P/LINEAR,e,13.6372,109.8852,131.3288,4.564776,0.1010590,0.15246679,177.5045,03/02.0/2023,2000,g  9.0,4.0
# From MPEC 2022-K19
188P/LINEAR-Mueller,e,10.5256,358.9626,26.6437,4.370432,0.1078742,0.41682201,237.2708,03/02.0/2023,2000,g 11.5,4.0
# From MPEC 2022-QD9
189P/NEAT,e,20.0692,281.7019,16.3359,2.945887,0.1949305,0.58879603,36.0922,03/02.0/2023,2000,g 19.0,4.0
# From MPEC 2020-K19
190P/Mueller,e,2.1741,335.5325,50.4121,4.230170,0.1132837,0.52222115,284.8917,03/02.0/2023,2000,g 13.0,4.0
# From MPEC 2022-X67
191P/McNaught,e,8.8398,98.2184,284.1398,3.637776,0.1420529,0.38598623,101.0765,03/02.0/2023,2000,g 13.0,4.0
# From MPC 75724
192P/Shoemaker-Levy,e,24.5871,51.6108,313.0589,6.466765,0.0599340,0.77344406,333.0692,03/02.0/2023,2000,g 15.0,4.0
# From MPEC 2022-Y15
193P/LINEAR-NEAT,e,10.6878,335.1775,8.1058,3.576845,0.1456981,0.39362833,80.6927,03/02.0/2023,2000,g 14.0,4.0
# From MPC 98566
194P/LINEAR,e,11.8218,349.5860,128.4731,4.128224,0.1175058,0.56429958,320.1706,03/02.0/2023,2000,g 16.0,4.0
# From MPEC 2023-D72
195P/Hill,e,36.3471,243.1137,249.3065,6.507515,0.0593720,0.31469624,307.9021,03/02.0/2023,2000,g  8.5,4.0
# From MPEC 2022-YN2
196P/Tichy,e,19.3017,24.1122,12.0406,3.803750,0.1328575,0.42810850,16.4337,03/02.0/2023,2000,g 13.5,4.0
# From MPC 94676
197P/LINEAR,e,25.5281,66.3617,188.7534,2.867847,0.2029412,0.62934308,17.1022,03/02.0/2023,2000,g 16.5,2.0
# From NK 1596
198P/ODAS,e,1.3385,358.2154,69.2183,3.596139,0.1445271,0.44436183,222.2910,03/02.0/2023,2000,g  9.0,4.0
# From MPEC 2023-D72
199P/Shoemaker,e,24.9360,92.3487,191.7749,5.883400,0.0690656,0.50533940,349.0474,03/02.0/2023,2000,g 10.0,4.0
# From MPEC 2022-C56
200P/Larsen,e,12.0981,234.7382,134.3273,4.946647,0.0895855,0.33257710,117.4309,03/02.0/2023,2000,g  9.0,4.0
# From MPC 93588
201P/LONEOS,e,5.7396,19.7449,41.5433,3.354688,0.1604079,0.63737597,103.3253,03/02.0/2023,2000,g 14.0,4.0
# From MPEC 2022-X67
202P/Scotti,e,2.1399,177.3239,274.7253,4.119222,0.1178912,0.25641260,307.8125,03/02.0/2023,2000,g 13.5,4.0
# From MPEC 2021-S45
203P/Korlevic,e,2.9730,290.2848,154.7825,4.669307,0.0976844,0.31577922,106.6728,03/02.0/2023,2000,g 14.5,2.0
# From MPEC 2023-D72
204P/LINEAR-NEAT,e,6.5961,108.4991,356.6547,3.581733,0.1453999,0.48785287,15.2868,03/02.0/2023,2000,g 14.0,4.0
# From MPEC 2023-A50
205P/Giacobini,e,15.3062,179.6027,154.1752,3.542051,0.1478502,0.56795814,60.9677,03/02.0/2023,2000,g 13.0,4.0
# From MPC 75725
206P/Barnard-Boattini,e,33.6408,202.3307,189.5369,3.490104,0.1511633,0.55153598,109.9410,03/02.0/2023,2000,g 19.0,4.0
# From MPC 75725
207P/NEAT,e,10.2011,198.1623,273.0291,3.879916,0.1289646,0.75842093,316.6935,03/02.0/2023,2000,g 16.0,4.0
# From MPEC 2022-K19
208P/McMillan,e,4.4125,36.3399,310.6025,4.041506,0.1213079,0.37413475,294.4153,03/02.0/2023,2000,g 12.5,4.0
# From MPEC 2023-CD7
209P/LINEAR,e,21.2699,62.7653,152.4436,2.959756,0.1935620,0.67350277,263.0866,03/02.0/2023,2000,g 17.0,2.0
# From MPC105242
210P/Christensen,e,10.2755,93.8033,345.9027,3.162944,0.1752132,0.83369223,185.3516,03/02.0/2023,2000,g 13.5,4.0
# From MPEC 2023-D72
211P/Hill,e,18.9192,117.1301,4.2915,3.547831,0.1474890,0.34394421,21.8815,03/02.0/2023,2000,g 12.5,4.0
# From MPEC 2021-F20
212P/NEAT,e,22.1469,98.0529,14.0383,3.899860,0.1279766,0.58701779,306.2329,03/02.0/2023,2000,g 17.0,2.0
# From MPEC 2022-GA9
213P/Van Ness,e,10.3807,311.2788,5.7606,3.345921,0.1610388,0.40810697,318.9807,03/02.0/2023,2000,g 10.5,4.0
# From MPC 92986
214P/LINEAR,e,15.1829,348.2474,190.1731,3.619680,0.1431195,0.48589377,22.4416,03/02.0/2023,2000,g 13.0,4.0
# From MPEC 2023-B57
215P/NEAT,e,10.5771,56.6785,262.4092,4.331319,0.1093387,0.16609152,131.0603,03/02.0/2023,2000,g 11.0,4.0
# From MPC100284
216P/LINEAR,e,9.0636,359.8030,151.6825,3.858315,0.1300491,0.44855867,319.5843,03/02.0/2023,2000,g 13.0,4.0
# From MPEC 2021-N06
217P/LINEAR,e,12.8621,125.4234,246.9441,3.948354,0.1256261,0.68930333,257.6475,03/02.0/2023,2000,g 12.0,4.0
# From MPEC 2022-K19
218P/LINEAR,e,2.7305,176.0112,59.5488,3.087858,0.1816428,0.62330659,159.6743,03/02.0/2023,2000,g 16.0,4.0
# From MPC100284
219P/LINEAR,e,11.5395,230.9522,107.5857,3.646346,0.1415524,0.35409611,310.6402,03/02.0/2023,2000,g 11.0,4.0
# From MPEC 2021-BE3
220P/McNaught,e,8.1275,150.1055,180.6064,3.117788,0.1790335,0.50131064,145.2792,03/02.0/2023,2000,g 15.0,4.0
# From MPEC 2022-UY9
221P/LINEAR,e,11.4565,229.5983,40.1407,3.457962,0.1532759,0.49405149,67.2336,03/02.0/2023,2000,g 14.5,4.0
# From MPC 92277
222P/LINEAR,e,5.0979,6.7753,346.2804,2.898574,0.1997228,0.71478251,272.5520,03/02.0/2023,2000,g 20.0,4.0
# From MPEC 2023-A50
223P/Skiff,e,27.0224,346.7655,37.8652,4.158576,0.1162217,0.41654539,173.5240,03/02.0/2023,2000,g 12.0,4.0
# From MPEC 2023-BF4
224P/LINEAR-NEAT,e,13.3058,40.0383,16.6811,3.443557,0.1542386,0.40582834,23.6006,03/02.0/2023,2000,g 15.5,4.0
# From MPC 75727
225P/LINEAR,e,21.3668,14.2046,3.9174,3.647914,0.1414611,0.63847639,337.4984,03/02.0/2023,2000,g 18.0,4.0
# From MPC106349
226P/Pigott-LINEAR-Kowalski,e,44.0446,54.0132,341.0764,3.765974,0.1348615,0.52897908,319.5061,03/02.0/2023,2000,g 12.5,4.0
# From MPC102956
227P/Catalina-LINEAR,e,7.5075,36.8137,105.4245,3.444142,0.1541994,0.52832971,302.6598,03/02.0/2023,2000,g 16.5,2.0
# From MPEC 2022-HC2
228P/LINEAR,e,7.9132,30.9867,114.8423,4.166565,0.1158876,0.17635511,126.2003,03/02.0/2023,2000,g 14.1,4.0
# From MPC106349
229P/Gibbs,e,26.0918,157.9015,224.0753,3.926124,0.1266946,0.37795092,266.9484,03/02.0/2023,2000,g 13.0,4.0
# From MPEC 2023-D41
230P/LINEAR,e,15.4684,106.9766,313.4618,3.452772,0.1536216,0.54559962,53.4009,03/02.0/2023,2000,g 13.0,4.0
# From MPEC 2022-K19
231P/LINEAR-NEAT,e,12.2928,132.9626,44.2019,4.047993,0.1210165,0.24259158,164.2209,03/02.0/2023,2000,g 14.5,2.0
# From MPC112394
232P/Hill,e,14.6431,56.0252,53.2299,4.474860,0.1041202,0.33486399,148.4904,03/02.0/2023,2000,g 11.5,4.0
# From MPEC 2021-N06
233P/La Sagra,e,11.2890,74.9170,26.9608,3.028358,0.1870223,0.41226452,164.8165,03/02.0/2023,2000,g 15.0,4.0
# From MPEC 2022-K19
234P/LINEAR,e,11.5356,179.5719,357.3234,3.796396,0.1332437,0.25646818,279.8689,03/02.0/2023,2000,g 12.0,4.0
# From MPC110497
235P/LINEAR,e,9.9197,202.1082,335.4398,3.843078,0.1308234,0.36477670,227.4576,03/02.0/2023,2000,g 12.0,4.0
# From MPC107688
236P/LINEAR,e,16.3509,245.5726,119.3458,3.727870,0.1369345,0.50941117,263.5155,03/02.0/2023,2000,g 14.0,4.0
# From MPEC 2023-D72
237P/LINEAR,e,14.0166,245.3587,25.2616,3.510962,0.1498183,0.43404583,348.9615,03/02.0/2023,2000,g 14.5,2.0
# From MPEC 2022-YN2
238P/Read,e,1.2640,51.6257,324.1913,3.165280,0.1750193,0.25144216,47.1923,03/02.0/2023,2000,g 14.5,4.0
# From MPEC 2021-F20
239P/LINEAR,e,11.3041,255.9316,220.3627,4.467318,0.1043840,0.63044693,157.9061,03/02.0/2023,2000,g 17.5,2.0
# From MPEC 2023-CD7
240P/NEAT,e,23.5309,74.9094,351.9568,3.863944,0.1297651,0.44991055,227.1146,03/02.0/2023,2000,g 11.0,4.0
# From MPEC 2022-J42
241P/LINEAR,e,21.1001,305.4687,111.4737,4.921913,0.0902616,0.61038593,52.7148,03/02.0/2023,2000,g 13.5,4.0
# From MPEC 2021-S45
242P/Spahr,e,32.5078,180.3766,245.2660,5.507574,0.0762542,0.27946753,309.2413,03/02.0/2023,2000,g  8.0,4.0
# From MPEC 2022-K19
243P/NEAT,e,7.6418,87.5939,283.6540,3.829652,0.1315119,0.36063906,216.5414,03/02.0/2023,2000,g 12.5,4.0
# From MPEC 2023-D41
244P/Scotti,e,2.2593,353.9953,93.1354,4.896915,0.0909537,0.19940679,9.5067,03/02.0/2023,2000,g  9.0,4.0
# From MPEC 2022-CN4
